[ {"name": "STARLINK-37175", "line1": "1 68401U 26063X   26136.65449758  .00064584  00000+0  11787-2 0  9994", "line2": "2 68401  97.2871 279.2229 0000899  94.0961 266.0393 15.49207045  8300"}, {"name": "STARLINK-36360", "line1": "1 68402U 26063Y   26136.91670139  .00012623  00000+0  39282-3 0  9991", "line2": "2 68402  97.2859 279.5974 0001822  90.0201 189.0277 15.33432508  6015"}, {"name": "STARLINK-37218", "line1": "1 68403U 26063Z   26136.82641788  .00229094  00000+0  14915-2 0  9997", "line2": "2 68403  97.2846 280.0632 0000878  28.9336 331.1978 15.75258442  8377"}, {"name": "STARLINK-37188", "line1": "1 68404U 26063AA  26136.91670139  .00015191  00000+0  47216-3 0  9992", "line2": "2 68404  97.2855 279.6568 0001477  85.8020 328.2475 15.33429069  6015"}, {"name": "STARLINK-37262", "line1": "1 68508U 26068A   26136.91670139 -.01891009  00000+0 -12969-1 0  9990", "line2": "2 68508  53.1575 167.4066 0001052  92.2992 101.8423 15.77217845  5973"}, {"name": "STARLINK-36292", "line1": "1 68509U 26068B   26136.51179690  .00031590  00000+0  57311-3 0  9993", "line2": "2 68509  53.1574 173.1895 0001024  79.2827 280.8297 15.49340481  7340"}, {"name": "STARLINK-37260", "line1": "1 68510U 26068C   26136.91670139 -.02170957  00000+0 -58684-1 0  9990", "line2": "2 68510  53.1590 169.5548 0000980 100.6099 114.5799 15.40475647  5975"}, {"name": "STARLINK-37280", "line1": "1 68511U 26068D   26136.91670139 -.02572087  00000+0 -23257-1 0  9999", "line2": "2 68511  53.1595 167.4357 0001304  83.1677  96.4901 15.70831099  5977"}, {"name": "STARLINK-37286", "line1": "1 68512U 26068E   26136.91670139 -.01863593  00000+0 -22719-1 0  9996", "line2": "2 68512  53.1592 167.6388 0000891  79.2601   0.9399 15.62996477  5912"}, {"name": "STARLINK-36250", "line1": "1 68513U 26068F   26136.79315828  .00047028  00000+0  84728-3 0  9998", "line2": "2 68513  53.1574 172.1019 0001300  87.1647 272.9511 15.49350844  7386"}, {"name": "STARLINK-37251", "line1": "1 68514U 26068G   26136.51687002  .00031244  00000+0  72404-3 0  9996", "line2": "2 68514  53.1581 174.6618 0001141  78.7279 281.3855 15.42179171  7321"}, {"name": "STARLINK-36293", "line1": "1 68515U 26068H   26136.80224905 -.01085973  00000+0 -31481-1 0  9997", "line2": "2 68515  53.1580 172.1569 0001674  45.0350 315.0790 15.37737745  7387"}, {"name": "STARLINK-36290", "line1": "1 68516U 26068J   26136.91670139  .00043706  00000+0  12990-2 0  9994", "line2": "2 68516  53.1594 171.2415 0001248 100.1064   0.1113 15.34355356  6027"}, {"name": "STARLINK-36298", "line1": "1 68517U 26068K   26136.79419100  .00032475  00000+0  75182-3 0  9994", "line2": "2 68517  53.1562 173.5536 0000873  95.2451 264.8654 15.42189541  7366"}, {"name": "STARLINK-36857", "line1": "1 68518U 26068L   26136.91670139  .00086946  00000+0  15574-2 0  9990", "line2": "2 68518  53.1570 171.5454 0001180  88.0128 224.5603 15.49246061  6023"}, {"name": "STARLINK-36326", "line1": "1 68519U 26068M   26136.79619550 -.00054069  00000+0 -96883-3 0  9993", "line2": "2 68519  53.1584 172.1201 0000779  58.5028 301.6057 15.49367949  7389"}, {"name": "STARLINK-37126", "line1": "1 68520U 26068N   26136.40795533  .00045408  00000+0  81903-3 0  9991", "line2": "2 68520  53.1566 173.9671 0001060  86.2011 273.9120 15.49334349  7329"}, {"name": "STARLINK-36347", "line1": "1 68521U 26068P   26136.81262205  .00008331  00000+0  29306-3 0  9995", "line2": "2 68521  53.1597 172.9329 0001083  68.3072 291.8044 15.30204184  7378"}, {"name": "STARLINK-36322", "line1": "1 68522U 26068Q   26136.91670139  .00048316  00000+0  14336-2 0  9999", "line2": "2 68522  53.1591 171.4039 0001594  88.7929 290.0020 15.34362433  6021"}, {"name": "STARLINK-37208", "line1": "1 68523U 26068R   26136.51877013  .00030661  00000+0  55661-3 0  9997", "line2": "2 68523  53.1572 173.2309 0001242  98.0421 262.0729 15.49337731  7342"}, {"name": "STARLINK-36302", "line1": "1 68524U 26068S   26136.81010831  .00030853  00000+0  55987-3 0  9992", "line2": "2 68524  53.1580 172.2114 0001068  98.2679 261.8451 15.49345861  7384"}, {"name": "STARLINK-36311", "line1": "1 68525U 26068T   26136.35211790  .00050254  00000+0  90457-3 0  9997", "line2": "2 68525  53.1578 174.3278 0000822 105.9804 254.1296 15.49348402  7318"}, {"name": "STARLINK-37178", "line1": "1 68526U 26068U   26136.82712808  .00046390  00000+0  10691-2 0  9993", "line2": "2 68526  53.1579 173.0354 0002336  97.3740 262.7532 15.42156134  7372"}, {"name": "STARLINK-37248", "line1": "1 68527U 26068V   26136.91670139  .00059727  00000+0  17688-2 0  9995", "line2": "2 68527  53.1586 169.2339 0000836  74.9546 295.4202 15.34329323  6020"}, {"name": "STARLINK-37241", "line1": "1 68528U 26068W   26136.82423080  .00013424  00000+0  46447-3 0  9997", "line2": "2 68528  53.1595 173.0022 0001050  56.9672 303.1429 15.30204597  7370"}, {"name": "STARLINK-37244", "line1": "1 68529U 26068X   26136.81701871  .00064497  00000+0  11580-2 0  9999", "line2": "2 68529  53.1573 172.2545 0002214  96.7217 263.4044 15.49310980  7384"}, {"name": "STARLINK-36285", "line1": "1 68530U 26068Y   26136.88637867  .00011081  00000+0  38565-3 0  9995", "line2": "2 68530  53.1578 172.6772 0001187  85.2955 274.8182 15.30204500  7386"}, {"name": "STARLINK-36294", "line1": "1 68531U 26068Z   26136.81789935  .00013255  00000+0  45883-3 0  9999", "line2": "2 68531  53.1583 172.9648 0001594  56.1645 303.9507 15.30202083  7371"}, {"name": "STARLINK-36249", "line1": "1 68532U 26068AA  26136.81345907  .00025833  00000+0  47053-3 0  9993", "line2": "2 68532  53.1595 172.2307 0001372  82.4175 277.6990 15.49337755  7383"}, {"name": "STARLINK-36252", "line1": "1 68533U 26068AB  26136.91670139  .00051565  00000+0  15288-2 0  9998", "line2": "2 68533  53.1589 171.4966 0001410  92.6137 239.6705 15.34358804  6027"}, {"name": "STARLINK-36299", "line1": "1 68534U 26068AC  26136.91670139 -.02471791  00000+0 -65676-1 0  9995", "line2": "2 68534  53.1596 171.5539 0001343 114.3616 190.1799 15.41451307  5968"}, {"name": "STARLINK-37234", "line1": "1 68535U 26068AD  26136.81091148  .00024840  00000+0  57815-3 0  9995", "line2": "2 68535  53.1575 172.9290 0001510  80.2780 279.8397 15.42173210  7375"}, {"name": "STARLINK-37173", "line1": "1 68536U 26068AE  26136.83243484  .00028676  00000+0  66560-3 0  9998", "line2": "2 68536  53.1589 173.0670 0002113  94.9580 265.1667 15.42174338  7375"}, {"name": "STARLINK-37326", "line1": "1 68542U 26070A   26136.91670139 -.02531834  00000+0 -77266-1 0  9990", "line2": "2 68542  53.1607  45.7511 0001092 130.3564  84.9037 15.37375665  6034"}, {"name": "STARLINK-36308", "line1": "1 68543U 26070B   26136.91670139 -.02502803  00000+0 -69338-1 0  9996", "line2": "2 68543  53.1615  45.7466 0001119 103.4522 114.2089 15.40255001  6026"}, {"name": "STARLINK-37263", "line1": "1 68544U 26070C   26136.76096925  .00049644  00000+0  89379-3 0  9999", "line2": "2 68544  53.1606  46.6290 0001588 110.6690 249.4490 15.49347034  6976"}, {"name": "STARLINK-37289", "line1": "1 68545U 26070D   26136.76277858  .00046092  00000+0  83070-3 0  9992", "line2": "2 68545  53.1596  46.6416 0001230 103.2910 256.8236 15.49350382  6972"}, {"name": "STARLINK-37290", "line1": "1 68546U 26070E   26136.91670139 -.00012928  00000+0 -37232-3 0  9991", "line2": "2 68546  53.1607  45.6416 0001782  90.2532 174.4954 15.34382305  6024"}, {"name": "STARLINK-37245", "line1": "1 68547U 26070F   26136.03859300  .00050316  00000+0  90598-3 0  9999", "line2": "2 68547  53.1596  49.9387 0000965  86.9411 273.1708 15.49338255  6863"}, {"name": "STARLINK-37145", "line1": "1 68548U 26070G   26136.17566927 -.00247305  00000+0 -45869-2 0  9993", "line2": "2 68548  53.1603  49.3761 0000913 103.2132 256.8979 15.49270017  6880"}, {"name": "STARLINK-36204", "line1": "1 68549U 26070H   26136.04886411  .00068423  00000+0  12263-2 0  9995", "line2": "2 68549  53.1618  50.0082 0001421  98.6345 261.4825 15.49338189  6865"}, {"name": "STARLINK-36304", "line1": "1 68550U 26070J   26136.95099370  .00022133  00000+0  40457-3 0  9992", "line2": "2 68550  53.1594  45.6800 0001250 100.8478 259.2672 15.49330000  7007"}, {"name": "STARLINK-37288", "line1": "1 68551U 26070K   26136.75561115  .00039553  00000+0  71476-3 0  9991", "line2": "2 68551  53.1612  46.5948 0000598  65.0482 295.0589 15.49343345  6979"}, {"name": "STARLINK-37295", "line1": "1 68552U 26070L   26136.76218465  .00073633  00000+0  13163-2 0  9995", "line2": "2 68552  53.1601  46.6384 0001097 102.6408 257.4724 15.49379332  6972"}, {"name": "STARLINK-37254", "line1": "1 68553U 26070M   26136.74260289  .00057722  00000+0  10365-2 0  9997", "line2": "2 68553  53.1592  46.5114 0002631  85.7117 274.4193 15.49354808  6975"}, {"name": "STARLINK-37255", "line1": "1 68554U 26070N   26136.66668981  .00082427  00000+0  14774-2 0  9998", "line2": "2 68554  53.1597  47.0389 0000933  94.1642 120.0068 15.49253835  6055"}, {"name": "STARLINK-37146", "line1": "1 68555U 26070P   26136.91670139 -.02131772  00000+0 -52999-1 0  9997", "line2": "2 68555  53.1593  45.5020 0000921 107.5371 230.6958 15.43473692  6024"}, {"name": "STARLINK-37144", "line1": "1 68556U 26070Q   26136.91670139 -.00019574  00000+0 -56990-3 0  9998", "line2": "2 68556  53.1602  45.3409 0001482 116.2640 299.5726 15.34386880  6023"}, {"name": "STARLINK-37210", "line1": "1 68557U 26070R   26136.72744601 -.00026725  00000+0 -47495-3 0  9990", "line2": "2 68557  53.1609  46.4085 0000902 138.9508 221.1570 15.49258421  6970"}, {"name": "STARLINK-37227", "line1": "1 68558U 26070S   26136.75329295  .00064746  00000+0  11603-2 0  9996", "line2": "2 68558  53.1603  46.5819 0001407  86.2331 273.8839 15.49364815  6978"}, {"name": "STARLINK-37294", "line1": "1 68559U 26070T   26136.36531450  .00036187  00000+0  65469-3 0  9990", "line2": "2 68559  53.1602  48.4206 0001102  96.6469 263.4666 15.49352519  6913"}, {"name": "STARLINK-37291", "line1": "1 68560U 26070U   26136.75132981  .00053556  00000+0  96280-3 0  9995", "line2": "2 68560  53.1593  46.5668 0001270  83.9177 276.1977 15.49356329  6971"}]